[{"OBJECT_NAME":"STARLINK-5531","OBJECT_ID":"2023-013BE","EPOCH":"2025-11-24T12:42:13.489056","MEAN_MOTION":15.02659587,"ECCENTRICITY":0.00019358,"INCLINATION":43.0014,"RA_OF_ASC_NODE":138.4654,"ARG_OF_PERICENTER":254.4794,"MEAN_ANOMALY":105.5835,"EPHEMERIS_TYPE":0,"CLASSIFICATION_TYPE":"U","NORAD_CAT_ID":55383,"ELEMENT_SET_NO":999,"REV_AT_EPOCH":15604,"BSTAR":-0.0018513847,"MEAN_MOTION_DOT":-0.00025206,"MEAN_MOTION_DDOT":0},{"OBJECT_NAME":"STARLINK-5537","OBJECT_ID":"2023-013BF","EPOCH":"2025-11-24T22:07:52.094208","MEAN_MOTION":15.02538407,"ECCENTRICITY":0.0001312,"INCLINATION":43.0022,"RA_OF_ASC_NODE":162.2572,"ARG_OF_PERICENTER":265.1945,"MEAN_ANOMALY":94.8748,"EPHEMERIS_TYPE":0,"CLASSIFICATION_TYPE":"U","NORAD_CAT_ID":55384,"ELEMENT_SET_NO":999,"REV_AT_EPOCH":15580,"BSTAR":4.4402e-5,"MEAN_MOTION_DOT":3.96e-6,"MEAN_MOTION_DDOT":0},{"OBJECT_NAME":"STARLINK-5556","OBJECT_ID":"2023-013BG","EPOCH":"2025-11-24T20:11:21.724224","MEAN_MOTION":15.02535849,"ECCENTRICITY":0.0001217,"INCLINATION":43.0033,"RA_OF_ASC_NODE":162.5075,"ARG_OF_PERICENTER":265.255,"MEAN_ANOMALY":94.8154,"EPHEMERIS_TYPE":0,"CLASSIFICATION_TYPE":"U","NORAD_CAT_ID":55385,"ELEMENT_SET_NO":999,"REV_AT_EPOCH":15579,"BSTAR":1.7353e-5,"MEAN_MOTION_DOT":3.1e-7,"MEAN_MOTION_DDOT":0},{"OBJECT_NAME":"STARLINK-5555","OBJECT_ID":"2023-013BH","EPOCH":"2025-11-24T23:27:36.821664","MEAN_MOTION":15.02538748,"ECCENTRICITY":0.0001312,"INCLINATION":43.0029,"RA_OF_ASC_NODE":161.81,"ARG_OF_PERICENTER":267.525,"MEAN_ANOMALY":92.5442,"EPHEMERIS_TYPE":0,"CLASSIFICATION_TYPE":"U","NORAD_CAT_ID":55386,"ELEMENT_SET_NO":999,"REV_AT_EPOCH":15581,"BSTAR":5.3105e-5,"MEAN_MOTION_DOT":5.14e-6,"MEAN_MOTION_DDOT":0},{"OBJECT_NAME":"STARLINK-5085","OBJECT_ID":"2023-014B","EPOCH":"2025-11-25T02:12:22.658688","MEAN_MOTION":14.983321,"ECCENTRICITY":0.0002686,"INCLINATION":69.9985,"RA_OF_ASC_NODE":308.0738,"ARG_OF_PERICENTER":268.0073,"MEAN_ANOMALY":92.0779,"EPHEMERIS_TYPE":0,"CLASSIFICATION_TYPE":"U","NORAD_CAT_ID":55392,"ELEMENT_SET_NO":999,"REV_AT_EPOCH":15688,"BSTAR":0.00011431,"MEAN_MOTION_DOT":1.271e-5,"MEAN_MOTION_DDOT":0},{"OBJECT_NAME":"STARLINK-4786","OBJECT_ID":"2023-014C","EPOCH":"2025-11-25T02:42:44.947008","MEAN_MOTION":14.98336775,"ECCENTRICITY":0.0003245,"INCLINATION":69.9993,"RA_OF_ASC_NODE":328.0302,"ARG_OF_PERICENTER":275.8208,"MEAN_ANOMALY":84.2581,"EPHEMERIS_TYPE":0,"CLASSIFICATION_TYPE":"U","NORAD_CAT_ID":55393,"ELEMENT_SET_NO":999,"REV_AT_EPOCH":15639,"BSTAR":0.00016624,"MEAN_MOTION_DOT":1.891e-5,"MEAN_MOTION_DDOT":0},{"OBJECT_NAME":"STARLINK-5274","OBJECT_ID":"2023-014E","EPOCH":"2025-11-25T02:30:42.912576","MEAN_MOTION":14.98326814,"ECCENTRICITY":0.0003305,"INCLINATION":69.9992,"RA_OF_ASC_NODE":327.98,"ARG_OF_PERICENTER":270.8606,"MEAN_ANOMALY":89.2174,"EPHEMERIS_TYPE":0,"CLASSIFICATION_TYPE":"U","NORAD_CAT_ID":55395,"ELEMENT_SET_NO":999,"REV_AT_EPOCH":15639,"BSTAR":0.00018899,"MEAN_MOTION_DOT":2.163e-5,"MEAN_MOTION_DDOT":0},{"OBJECT_NAME":"STARLINK-5283","OBJECT_ID":"2023-014F","EPOCH":"2025-11-25T02:36:43.898688","MEAN_MOTION":14.98334065,"ECCENTRICITY":0.0002975,"INCLINATION":69.9993,"RA_OF_ASC_NODE":328.0051,"ARG_OF_PERICENTER":272.1524,"MEAN_ANOMALY":87.9294,"EPHEMERIS_TYPE":0,"CLASSIFICATION_TYPE":"U","NORAD_CAT_ID":55396,"ELEMENT_SET_NO":999,"REV_AT_EPOCH":15639,"BSTAR":4.5576e-5,"MEAN_MOTION_DOT":4.51e-6,"MEAN_MOTION_DDOT":0},{"OBJECT_NAME":"STARLINK-5224","OBJECT_ID":"2023-014G","EPOCH":"2025-11-25T01:42:22.099104","MEAN_MOTION":14.98324382,"ECCENTRICITY":0.0002795,"INCLINATION":69.9997,"RA_OF_ASC_NODE":308.3887,"ARG_OF_PERICENTER":268.9478,"MEAN_ANOMALY":91.136,"EPHEMERIS_TYPE":0,"CLASSIFICATION_TYPE":"U","NORAD_CAT_ID":55397,"ELEMENT_SET_NO":999,"REV_AT_EPOCH":15687,"BSTAR":0.00016158,"MEAN_MOTION_DOT":1.835e-5,"MEAN_MOTION_DDOT":0},{"OBJECT_NAME":"STARLINK-5275","OBJECT_ID":"2023-014H","EPOCH":"2025-11-25T03:00:47.888064","MEAN_MOTION":14.98321755,"ECCENTRICITY":0.0002893,"INCLINATION":69.999,"RA_OF_ASC_NODE":328.0633,"ARG_OF_PERICENTER":268.1598,"MEAN_ANOMALY":91.923,"EPHEMERIS_TYPE":0,"CLASSIFICATION_TYPE":"U","NORAD_CAT_ID":55398,"ELEMENT_SET_NO":999,"REV_AT_EPOCH":15639,"BSTAR":0.00018409,"MEAN_MOTION_DOT":2.104e-5,"MEAN_MOTION_DDOT":0},{"OBJECT_NAME":"STARLINK-5276","OBJECT_ID":"2023-014J","EPOCH":"2025-11-25T02:48:45.565056","MEAN_MOTION":14.9832559,"ECCENTRICITY":0.0002948,"INCLINATION":69.9993,"RA_OF_ASC_NODE":328.033,"ARG_OF_PERICENTER":270.3124,"MEAN_ANOMALY":89.7698,"EPHEMERIS_TYPE":0,"CLASSIFICATION_TYPE":"U","NORAD_CAT_ID":55399,"ELEMENT_SET_NO":999,"REV_AT_EPOCH":15639,"BSTAR":-7.2111e-6,"MEAN_MOTION_DOT":-1.79e-6,"MEAN_MOTION_DDOT":0},{"OBJECT_NAME":"STARLINK-5632","OBJECT_ID":"2023-014K","EPOCH":"2025-11-25T01:36:39.718368","MEAN_MOTION":14.98332129,"ECCENTRICITY":0.0002949,"INCLINATION":69.9991,"RA_OF_ASC_NODE":328.2553,"ARG_OF_PERICENTER":268.2829,"MEAN_ANOMALY":91.7993,"EPHEMERIS_TYPE":0,"CLASSIFICATION_TYPE":"U","NORAD_CAT_ID":55400,"ELEMENT_SET_NO":999,"REV_AT_EPOCH":15638,"BSTAR":5.267e-5,"MEAN_MOTION_DOT":5.36e-6,"MEAN_MOTION_DDOT":0},{"OBJECT_NAME":"STARLINK-5076","OBJECT_ID":"2023-014L","EPOCH":"2025-11-25T02:54:46.031904","MEAN_MOTION":14.98328516,"ECCENTRICITY":0.0003132,"INCLINATION":69.9994,"RA_OF_ASC_NODE":328.0481,"ARG_OF_PERICENTER":269.7594,"MEAN_ANOMALY":90.3206,"EPHEMERIS_TYPE":0,"CLASSIFICATION_TYPE":"U","NORAD_CAT_ID":55401,"ELEMENT_SET_NO":999,"REV_AT_EPOCH":15639,"BSTAR":2.5926e-5,"MEAN_MOTION_DOT":2.16e-6,"MEAN_MOTION_DDOT":0},{"OBJECT_NAME":"STARLINK-5071","OBJECT_ID":"2023-014M","EPOCH":"2025-11-25T01:48:41.071104","MEAN_MOTION":14.98329657,"ECCENTRICITY":0.0003084,"INCLINATION":69.999,"RA_OF_ASC_NODE":328.2897,"ARG_OF_PERICENTER":273.5592,"MEAN_ANOMALY":86.5214,"EPHEMERIS_TYPE":0,"CLASSIFICATION_TYPE":"U","NORAD_CAT_ID":55402,"ELEMENT_SET_NO":999,"REV_AT_EPOCH":15638,"BSTAR":3.0465e-5,"MEAN_MOTION_DOT":2.7e-6,"MEAN_MOTION_DDOT":0},{"OBJECT_NAME":"STARLINK-5597","OBJECT_ID":"2023-014N","EPOCH":"2025-11-25T03:06:47.217888","MEAN_MOTION":14.9832905,"ECCENTRICITY":0.0003166,"INCLINATION":69.9989,"RA_OF_ASC_NODE":328.0777,"ARG_OF_PERICENTER":267.3989,"MEAN_ANOMALY":92.6808,"EPHEMERIS_TYPE":0,"CLASSIFICATION_TYPE":"U","NORAD_CAT_ID":55403,"ELEMENT_SET_NO":999,"REV_AT_EPOCH":15639,"BSTAR":1.2967e-5,"MEAN_MOTION_DOT":6.2e-7,"MEAN_MOTION_DDOT":0},{"OBJECT_NAME":"STARLINK-5607","OBJECT_ID":"2023-014P","EPOCH":"2025-11-25T02:00:42.562080","MEAN_MOTION":14.98328077,"ECCENTRICITY":0.0003069,"INCLINATION":69.9985,"RA_OF_ASC_NODE":328.319,"ARG_OF_PERICENTER":271.7088,"MEAN_ANOMALY":88.3719,"EPHEMERIS_TYPE":0,"CLASSIFICATION_TYPE":"U","NORAD_CAT_ID":55404,"ELEMENT_SET_NO":999,"REV_AT_EPOCH":15638,"BSTAR":3.5618e-5,"MEAN_MOTION_DOT":3.32e-6,"MEAN_MOTION_DDOT":0},{"OBJECT_NAME":"STARLINK-5623","OBJECT_ID":"2023-014Q","EPOCH":"2025-11-25T01:42:39.880224","MEAN_MOTION":14.98327238,"ECCENTRICITY":0.0002953,"INCLINATION":70.0003,"RA_OF_ASC_NODE":328.2755,"ARG_OF_PERICENTER":267.5544,"MEAN_ANOMALY":92.5277,"EPHEMERIS_TYPE":0,"CLASSIFICATION_TYPE":"U","NORAD_CAT_ID":55405,"ELEMENT_SET_NO":999,"REV_AT_EPOCH":15638,"BSTAR":-0.00013342,"MEAN_MOTION_DOT":-1.684e-5,"MEAN_MOTION_DDOT":0},{"OBJECT_NAME":"STARLINK-5630","OBJECT_ID":"2023-014R","EPOCH":"2025-11-25T02:06:43.276032","MEAN_MOTION":14.9833999,"ECCENTRICITY":0.0002959,"INCLINATION":69.9999,"RA_OF_ASC_NODE":328.3345,"ARG_OF_PERICENTER":277.6183,"MEAN_ANOMALY":82.464,"EPHEMERIS_TYPE":0,"CLASSIFICATION_TYPE":"U","NORAD_CAT_ID":55406,"ELEMENT_SET_NO":999,"REV_AT_EPOCH":15638,"BSTAR":0.00026996,"MEAN_MOTION_DOT":3.13e-5,"MEAN_MOTION_DDOT":0},{"OBJECT_NAME":"STARLINK-5019","OBJECT_ID":"2023-014S","EPOCH":"2025-11-25T01:54:41.679648","MEAN_MOTION":14.98337364,"ECCENTRICITY":0.0003007,"INCLINATION":69.9987,"RA_OF_ASC_NODE":328.3052,"ARG_OF_PERICENTER":271.6825,"MEAN_ANOMALY":88.3989,"EPHEMERIS_TYPE":0,"CLASSIFICATION_TYPE":"U","NORAD_CAT_ID":55407,"ELEMENT_SET_NO":999,"REV_AT_EPOCH":15638,"BSTAR":-1.8774e-5,"MEAN_MOTION_DOT":-3.17e-6,"MEAN_MOTION_DDOT":0},{"OBJECT_NAME":"STARLINK-5092","OBJECT_ID":"2023-014T","EPOCH":"2025-11-25T02:12:43.677216","MEAN_MOTION":14.98331286,"ECCENTRICITY":0.0004008,"INCLINATION":69.9988,"RA_OF_ASC_NODE":328.3488,"ARG_OF_PERICENTER":271.9567,"MEAN_ANOMALY":88.1133,"EPHEMERIS_TYPE":0,"CLASSIFICATION_TYPE":"U","NORAD_CAT_ID":55408,"ELEMENT_SET_NO":999,"REV_AT_EPOCH":15638,"BSTAR":2.6838e-5,"MEAN_MOTION_DOT":2.27e-6,"MEAN_MOTION_DDOT":0},{"OBJECT_NAME":"STARLINK-5633","OBJECT_ID":"2023-014V","EPOCH":"2025-11-25T03:01:06.000960","MEAN_MOTION":14.98327299,"ECCENTRICITY":0.000291,"INCLINATION":69.9999,"RA_OF_ASC_NODE":347.9325,"ARG_OF_PERICENTER":273.0737,"MEAN_ANOMALY":87.0089,"EPHEMERIS_TYPE":0,"CLASSIFICATION_TYPE":"U","NORAD_CAT_ID":55410,"ELEMENT_SET_NO":999,"REV_AT_EPOCH":15590,"BSTAR":0.00013846,"MEAN_MOTION_DOT":1.559e-5,"MEAN_MOTION_DDOT":0},{"OBJECT_NAME":"STARLINK-5605","OBJECT_ID":"2023-014W","EPOCH":"2025-11-25T00:42:36.338400","MEAN_MOTION":14.9833271,"ECCENTRICITY":0.0002968,"INCLINATION":69.9991,"RA_OF_ASC_NODE":328.5315,"ARG_OF_PERICENTER":270.0933,"MEAN_ANOMALY":89.9886,"EPHEMERIS_TYPE":0,"CLASSIFICATION_TYPE":"U","NORAD_CAT_ID":55411,"ELEMENT_SET_NO":999,"REV_AT_EPOCH":15637,"BSTAR":6.5024e-5,"MEAN_MOTION_DOT":6.83e-6,"MEAN_MOTION_DDOT":0},{"OBJECT_NAME":"STARLINK-5060","OBJECT_ID":"2023-014Y","EPOCH":"2025-11-25T02:55:05.324160","MEAN_MOTION":14.98329589,"ECCENTRICITY":0.0002885,"INCLINATION":69.9999,"RA_OF_ASC_NODE":347.9202,"ARG_OF_PERICENTER":266.6798,"MEAN_ANOMALY":93.4031,"EPHEMERIS_TYPE":0,"CLASSIFICATION_TYPE":"U","NORAD_CAT_ID":55413,"ELEMENT_SET_NO":999,"REV_AT_EPOCH":15590,"BSTAR":6.2002e-5,"MEAN_MOTION_DOT":6.47e-6,"MEAN_MOTION_DDOT":0}]
